<?xml version="1.0" encoding="utf-8" ?>
<kml xmlns="http://www.opengis.net/kml/2.2">
<Document id="root_doc">
<Schema name="percorso_b__raffineria__area_2000" id="percorso_b__raffineria__area_2000">
	<SimpleField name="id" type="float"></SimpleField>
	<SimpleField name="Lunghezza" type="float"></SimpleField>
</Schema>
<Folder><name>percorso_b__raffineria__area_2000</name>
  <Placemark>
	<Style><LineStyle><color>ff0000ff</color></LineStyle><PolyStyle><fill>0</fill></PolyStyle></Style>
	<ExtendedData><SchemaData schemaUrl="#percorso_b__raffineria__area_2000">
		<SimpleData name="id">2</SimpleData>
		<SimpleData name="Lunghezza">1164.266</SimpleData>
	</SchemaData></ExtendedData>
      <MultiGeometry><LineString><coordinates>8.94852766394926,44.5735321967554 8.9484845294361,44.5735194923691 8.94846628021899,44.5735100379402 8.94841319158741,44.5734914245288 8.94840240795912,44.5734772428781 8.94840738501833,44.5734598112609 8.94854300988183,44.5732201998588 8.94855545252985,44.5731942000418 8.94846296217952,44.5731814955816 8.94843268506932,44.5731487003342 8.94857453125682,44.5729675875087 8.94850236389827,44.5729353830484 8.94849448355452,44.5729185421768 8.94847374580781,44.5729144058215 8.9483439275134,44.5730709962057 8.94824853387852,44.5731983363771 8.94817097470582,44.5732931765556 8.94813903857589,44.5733215399434 8.94789972497884,44.5736090139164 8.94784995438673,44.5736639676693 8.94782880188509,44.5736692857717 8.94780391658904,44.5737050352249 8.9478035018341,44.5737168532212 8.94760027191633,44.5739679850736 8.94753059308738,44.5740548468972 8.94751483239988,44.5740843917056 8.94729017064859,44.574360234586 8.9471515070775,44.5745281529216 8.94711366879203,44.5745776158267 8.94708930193988,44.5746095608627 8.94706649041872,44.5746395485567 8.94704409365248,44.5746688345534 8.94702184917907,44.5746980582149 8.9470103818533,44.5747130820471 8.94679813587354,44.5749878646983 8.94649453526168,44.575379030469 8.94651112545905,44.5754593904829 8.94654762389327,44.5754839120826 8.94659263291086,44.5755152045632 8.94657770173336,44.5755843376545 8.94656608859532,44.5756078251604 8.94646820643177,44.575747863678 8.9464275604486,44.5757986792592 8.94639935711334,44.5758559944545 8.94640433417251,44.5758908562466 8.946454934274,44.5759593980144 8.94646986545149,44.575968852045 8.94654286231922,44.5759819990537 8.94662249526584,44.5759658976606 8.94667019208282,44.5759825899304 8.94672493973362,44.5760224740957 8.94676890375623,44.5760286782967 8.94692153357058,44.5759681134489 8.94695222543542,44.5759599888913 8.94697296318194,44.5759681134489 8.947055914168,44.5760768346916 8.94705176661869,44.5761087419743 8.94682282189717,44.5762091907127 8.94679047101261,44.5762103724615 8.94672493973362,44.5762369618039 8.9466959068885,44.5762487792855 8.94666355600394,44.5763066849106 8.94662125100105,44.5763315015894 8.94658060501788,44.5763445007979 8.94635331931608,44.5764189507541 8.94614428283121,44.5764821740548 8.94525504826065,44.5766954783285 8.94515633658724,44.5767244309258 8.94494730010238,44.5767888356315 8.94488923441213,44.5768077434214 8.94457319115525,44.5769743680545 8.94404230484447,44.5772957986218 8.94376856659048,44.5774576949626 8.94363169746348,44.5775457332945 8.94351473657314,44.577621954293 8.94340690029126,44.5777164918268 8.94327666724315,44.5778464806847 8.94309915213298,44.5780237377499 8.94292661408197,44.5782069028162 8.94269103328157,44.5785070559356 8.94257490190109,44.578680175042 8.94248780336572,44.5787894820621 8.94246291806991,44.5788054349614 8.94233019649221,44.5788219787042 8.94228706197946,44.5788668831251 8.94223231432866,44.5789259678366 8.94222484873992,44.5789690996382 8.9421452157933,44.5792668854496 8.94215268138205,44.5792976092957 8.94209461569181,44.5794896329662 8.94207221892557,44.5795705781388 8.94203489098184,44.579692291106 8.94202161882407,44.5797401490475 8.94200523600432,44.5797592774422 8.94190133989428,44.5797532213488 8.94188957122314,44.5797495839997 8.94189387430554,44.5797230147273</coordinates></LineString></MultiGeometry>
  </Placemark>
</Folder>
</Document></kml>